[
    {
        "CCSDS_OMM_VERS": "3.0",
        "COMMENT": "GENERATED VIA SPACE-TRACK.ORG API",
        "CREATION_DATE": "2025-03-02T14:56:18",
        "ORIGINATOR": "18 SPCS",
        "OBJECT_NAME": "BEIDOU 3M6",
        "OBJECT_ID": "2018-018B",
        "CENTER_NAME": "EARTH",
        "REF_FRAME": "TEME",
        "TIME_SYSTEM": "UTC",
        "MEAN_ELEMENT_THEORY": "SGP4",
        "EPOCH": "2025-03-02T06:49:57.998784",
        "MEAN_MOTION": "1.86231053",
        "ECCENTRICITY": "0.00097730",
        "INCLINATION": "56.2363",
        "RA_OF_ASC_NODE": "78.7624",
        "ARG_OF_PERICENTER": "312.1783",
        "MEAN_ANOMALY": "47.7900",
        "EPHEMERIS_TYPE": "0",
        "CLASSIFICATION_TYPE": "U",
        "NORAD_CAT_ID": "43208",
        "ELEMENT_SET_NO": "999",
        "REV_AT_EPOCH": "4795",
        "BSTAR": "0.00000000000000",
        "MEAN_MOTION_DOT": "0.00000010",
        "MEAN_MOTION_DDOT": "0.0000000000000",
        "SEMIMAJOR_AXIS": "27906.183",
        "PERIOD": "773.233",
        "APOAPSIS": "21555.321",
        "PERIAPSIS": "21500.776",
        "OBJECT_TYPE": "PAYLOAD",
        "RCS_SIZE": "LARGE",
        "COUNTRY_CODE": "PRC",
        "LAUNCH_DATE": "2018-02-12",
        "SITE": "XSC",
        "DECAY_DATE": null,
        "FILE": "4656993",
        "GP_ID": "282068419",
        "TLE_LINE0": "0 BEIDOU 3M6",
        "TLE_LINE1": "1 43208U 18018B   25061.28469906  .00000010  00000-0  00000+0 0  9993",
        "TLE_LINE2": "2 43208  56.2363  78.7624 0009773 312.1783  47.7900  1.86231053 47950"
    }
]